[{"OBJECT_NAME":"STARLINK-36585","OBJECT_ID":"2026-014J","EPOCH":"2026-03-09T15:37:30.893664","MEAN_MOTION":15.7519954,"ECCENTRICITY":0.0002073,"INCLINATION":97.2841,"RA_OF_ASC_NODE":313.5237,"ARG_OF_PERICENTER":24.2198,"MEAN_ANOMALY":335.9165,"EPHEMERIS_TYPE":0,"CLASSIFICATION_TYPE":"U","NORAD_CAT_ID":67540,"ELEMENT_SET_NO":999,"REV_AT_EPOCH":856,"BSTAR":0.00094964,"MEAN_MOTION_DOT":0.00143992,"MEAN_MOTION_DDOT":0},{"OBJECT_NAME":"COSMOS 921 DEB","OBJECT_ID":"1977-055C","EPOCH":"2026-03-09T22:42:10.805760","MEAN_MOTION":15.70063735,"ECCENTRICITY":0.00183564,"INCLINATION":75.8082,"RA_OF_ASC_NODE":161.9867,"ARG_OF_PERICENTER":333.9317,"MEAN_ANOMALY":26.0991,"EPHEMERIS_TYPE":0,"CLASSIFICATION_TYPE":"U","NORAD_CAT_ID":39690,"ELEMENT_SET_NO":999,"REV_AT_EPOCH":65481,"BSTAR":0.0010474937,"MEAN_MOTION_DOT":0.0012919,"MEAN_MOTION_DDOT":0}]
